start=new Date('2022-10-24T00:00:00.000Z').valueOf();
sats=[{"LAUNCH_DATE":"2021-04-29","PERIAPSIS":"546.069","SEMIMAJOR_AXIS":"6925.350","SITE":"AFETR","BSTAR":"-0.00000344870000","MEAN_ELEMENT_THEORY":"SGP4","CENTER_NAME":"EARTH","REF_FRAME":"TEME","MEAN_MOTION_DOT":"-0.00000333","TLE_LINE1":"1 48288U 21036N   22297.05264098 -.00000333  00000-0 -34487-5 0  9990","DECAY_DATE":null,"MEAN_ANOMALY":"293.6527","ELEMENT_SET_NO":"999","PERIOD":"95.592","MEAN_MOTION_DDOT":"0.0000000000000","INCLINATION":"53.0550","EPOCH":"2022-10-24T01:15:48.180672","FILE":"3630623","RCS_SIZE":"LARGE","REV_AT_EPOCH":"8310","COUNTRY_CODE":"US","OBJECT_ID":"2021-036N","MEAN_MOTION":"15.06399513","EPHEMERIS_TYPE":"0","OBJECT_NAME":"STARLINK-2562","GP_ID":"215998656","ECCENTRICITY":"0.00016550","TIME_SYSTEM":"UTC","TLE_LINE2":"2 48288  53.0550 215.1387 0001655  66.4636 293.6527 15.06399513 83103","OBJECT_TYPE":"PAYLOAD","CLASSIFICATION_TYPE":"U","APOAPSIS":"548.361","RA_OF_ASC_NODE":"215.1387","ARG_OF_PERICENTER":"66.4636","NORAD_CAT_ID":"48288"},{"MEAN_MOTION_DOT":"0.00002562","TLE_LINE1":"1 48289U 21036P   22296.78450611  .00002562  00000-0  19076-3 0  9997","MEAN_ANOMALY":"287.3065","DECAY_DATE":null,"REF_FRAME":"TEME","ELEMENT_SET_NO":"999","PERIOD":"95.592","MEAN_MOTION_DDOT":"0.0000000000000","EPOCH":"2022-10-23T18:49:41.327904","INCLINATION":"53.0557","SEMIMAJOR_AXIS":"6925.322","SITE":"AFETR","LAUNCH_DATE":"2021-04-29","PERIAPSIS":"546.085","BSTAR":"0.00019076000000","CENTER_NAME":"EARTH","MEAN_ELEMENT_THEORY":"SGP4","GP_ID":"215993348","TIME_SYSTEM":"UTC","ECCENTRICITY":"0.00015910","APOAPSIS":"548.289","CLASSIFICATION_TYPE":"U","TLE_LINE2":"2 48289  53.0557 216.3500 0001591  72.8098 287.3065 15.06408723 82484","OBJECT_TYPE":"PAYLOAD","ARG_OF_PERICENTER":"72.8098","RA_OF_ASC_NODE":"216.3500","NORAD_CAT_ID":"48289","FILE":"3630604","REV_AT_EPOCH":"8248","RCS_SIZE":"LARGE","COUNTRY_CODE":"US","EPHEMERIS_TYPE":"0","OBJECT_ID":"2021-036P","MEAN_MOTION":"15.06408723","OBJECT_NAME":"STARLINK-2545"},{"FILE":"3630632","REV_AT_EPOCH":"8310","RCS_SIZE":"LARGE","COUNTRY_CODE":"US","OBJECT_ID":"2021-036Q","MEAN_MOTION":"15.06406966","EPHEMERIS_TYPE":"0","OBJECT_NAME":"STARLINK-2540","GP_ID":"215998976","TIME_SYSTEM":"UTC","ECCENTRICITY":"0.00014240","CLASSIFICATION_TYPE":"U","TLE_LINE2":"2 48290  53.0532 215.1662 0001424  83.5063 276.6088 15.06406966 83104","OBJECT_TYPE":"PAYLOAD","APOAPSIS":"548.178","RA_OF_ASC_NODE":"215.1662","ARG_OF_PERICENTER":"83.5063","NORAD_CAT_ID":"48290","LAUNCH_DATE":"2021-04-29","PERIAPSIS":"546.206","SITE":"AFETR","SEMIMAJOR_AXIS":"6925.327","BSTAR":"0.00005737400000","MEAN_ELEMENT_THEORY":"SGP4","CENTER_NAME":"EARTH","REF_FRAME":"TEME","TLE_LINE1":"1 48290U 21036Q   22297.04620462  .00000573  00000-0  57374-4 0  9996","MEAN_MOTION_DOT":"0.00000573","MEAN_ANOMALY":"276.6088","DECAY_DATE":null,"ELEMENT_SET_NO":"999","PERIOD":"95.592","MEAN_MOTION_DDOT":"0.0000000000000","INCLINATION":"53.0532","EPOCH":"2022-10-24T01:06:32.079168"},{"MEAN_MOTION_DDOT":"0.0000000000000","EPOCH":"2022-10-23T18:39:03.870432","INCLINATION":"53.0547","TLE_LINE1":"1 48291U 21036R   22296.77712813  .00002790  00000-0  20605-3 0  9997","MEAN_MOTION_DOT":"0.00002790","DECAY_DATE":null,"MEAN_ANOMALY":"282.1402","REF_FRAME":"TEME","ELEMENT_SET_NO":"999","PERIOD":"95.591","CENTER_NAME":"EARTH","MEAN_ELEMENT_THEORY":"SGP4","SEMIMAJOR_AXIS":"6925.314","SITE":"AFETR","LAUNCH_DATE":"2021-04-29","PERIAPSIS":"546.074","BSTAR":"0.00020605000000","APOAPSIS":"548.283","TLE_LINE2":"2 48291  53.0547 216.3706 0001595  77.9766 282.1402 15.06411375 82481","OBJECT_TYPE":"PAYLOAD","CLASSIFICATION_TYPE":"U","ARG_OF_PERICENTER":"77.9766","RA_OF_ASC_NODE":"216.3706","NORAD_CAT_ID":"48291","GP_ID":"215994349","TIME_SYSTEM":"UTC","ECCENTRICITY":"0.00015950","EPHEMERIS_TYPE":"0","OBJECT_ID":"2021-036R","MEAN_MOTION":"15.06411375","OBJECT_NAME":"STARLINK-2555","FILE":"3630604","RCS_SIZE":"LARGE","REV_AT_EPOCH":"8248","COUNTRY_CODE":"US"},{"OBJECT_ID":"2021-036S","MEAN_MOTION":"15.06413913","EPHEMERIS_TYPE":"0","OBJECT_NAME":"STARLINK-2542","FILE":"3630604","REV_AT_EPOCH":"8244","RCS_SIZE":"LARGE","COUNTRY_CODE":"US","TLE_LINE2":"2 48292  53.0554 217.6976 0001753  71.6530 288.4650 15.06413913 82449","CLASSIFICATION_TYPE":"U","OBJECT_TYPE":"PAYLOAD","APOAPSIS":"548.385","ARG_OF_PERICENTER":"71.6530","RA_OF_ASC_NODE":"217.6976","NORAD_CAT_ID":"48292","GP_ID":"215995101","TIME_SYSTEM":"UTC","ECCENTRICITY":"0.00017530","MEAN_ELEMENT_THEORY":"SGP4","CENTER_NAME":"EARTH","LAUNCH_DATE":"2021-04-29","PERIAPSIS":"545.957","SEMIMAJOR_AXIS":"6925.306","SITE":"AFETR","BSTAR":"0.00026282000000","MEAN_MOTION_DDOT":"0.0000000000000","INCLINATION":"53.0554","EPOCH":"2022-10-23T12:32:51.981504","REF_FRAME":"TEME","TLE_LINE1":"1 48292U 21036S   22296.52282386  .00003637  00000-0  26282-3 0  9996","MEAN_MOTION_DOT":"0.00003637","DECAY_DATE":null,"MEAN_ANOMALY":"288.4650","ELEMENT_SET_NO":"999","PERIOD":"95.591"},{"BSTAR":"0.00010851000000","PERIAPSIS":"546.201","LAUNCH_DATE":"2021-04-29","SITE":"AFETR","SEMIMAJOR_AXIS":"6925.321","MEAN_ELEMENT_THEORY":"SGP4","CENTER_NAME":"EARTH","PERIOD":"95.592","ELEMENT_SET_NO":"999","REF_FRAME":"TEME","MEAN_ANOMALY":"285.7156","DECAY_DATE":null,"MEAN_MOTION_DOT":"0.00001336","TLE_LINE1":"1 48293U 21036T   22296.76975843  .00001336  00000-0  10851-3 0  9999","INCLINATION":"53.0556","EPOCH":"2022-10-23T18:28:27.128352","MEAN_MOTION_DDOT":"0.0000000000000","COUNTRY_CODE":"US","RCS_SIZE":"LARGE","REV_AT_EPOCH":"8248","FILE":"3630604","OBJECT_NAME":"STARLINK-2550","MEAN_MOTION":"15.06408886","OBJECT_ID":"2021-036T","EPHEMERIS_TYPE":"0","TIME_SYSTEM":"UTC","ECCENTRICITY":"0.00014230","GP_ID":"215993849","NORAD_CAT_ID":"48293","RA_OF_ASC_NODE":"216.4204","ARG_OF_PERICENTER":"74.3990","TLE_LINE2":"2 48293  53.0556 216.4204 0001423  74.3990 285.7156 15.06408886 82485","CLASSIFICATION_TYPE":"U","OBJECT_TYPE":"PAYLOAD","APOAPSIS":"548.172"},{"EPOCH":"2022-10-23T18:23:08.701152","INCLINATION":"53.0556","MEAN_MOTION_DDOT":"0.0000000000000","ELEMENT_SET_NO":"999","PERIOD":"95.591","MEAN_MOTION_DOT":"0.00000891","TLE_LINE1":"1 48294U 21036U   22296.76607293  .00000891  00000-0  78648-4 0  9995","DECAY_DATE":null,"MEAN_ANOMALY":"285.5593","REF_FRAME":"TEME","CENTER_NAME":"EARTH","MEAN_ELEMENT_THEORY":"SGP4","BSTAR":"0.00007864800000","SITE":"AFETR","SEMIMAJOR_AXIS":"6925.310","LAUNCH_DATE":"2021-04-29","PERIAPSIS":"546.171","ARG_OF_PERICENTER":"74.5556","RA_OF_ASC_NODE":"216.4293","NORAD_CAT_ID":"48294","APOAPSIS":"548.179","TLE_LINE2":"2 48294  53.0556 216.4293 0001450  74.5556 285.5593 15.06412503 82488","OBJECT_TYPE":"PAYLOAD","CLASSIFICATION_TYPE":"U","ECCENTRICITY":"0.00014500","TIME_SYSTEM":"UTC","GP_ID":"215994099","OBJECT_NAME":"STARLINK-2533","EPHEMERIS_TYPE":"0","OBJECT_ID":"2021-036U","MEAN_MOTION":"15.06412503","COUNTRY_CODE":"US","FILE":"3630604","REV_AT_EPOCH":"8248","RCS_SIZE":"LARGE"},{"PERIOD":"95.592","ELEMENT_SET_NO":"999","DECAY_DATE":null,"MEAN_ANOMALY":"290.0591","MEAN_MOTION_DOT":"0.00002129","TLE_LINE1":"1 48295U 21036V   22296.76238962  .00002129  00000-0  16177-3 0  9993","REF_FRAME":"TEME","EPOCH":"2022-10-23T18:17:50.463168","INCLINATION":"53.0550","MEAN_MOTION_DDOT":"0.0000000000000","BSTAR":"0.00016177000000","SEMIMAJOR_AXIS":"6925.321","SITE":"AFETR","PERIAPSIS":"546.135","LAUNCH_DATE":"2021-04-29","CENTER_NAME":"EARTH","MEAN_ELEMENT_THEORY":"SGP4","TIME_SYSTEM":"UTC","ECCENTRICITY":"0.00015170","GP_ID":"215967840","NORAD_CAT_ID":"48295","RA_OF_ASC_NODE":"216.4558","ARG_OF_PERICENTER":"70.0562","APOAPSIS":"548.236","OBJECT_TYPE":"PAYLOAD","TLE_LINE2":"2 48295  53.0550 216.4558 0001517  70.0562 290.0591 15.06409069 83066","CLASSIFICATION_TYPE":"U","COUNTRY_CODE":"US","RCS_SIZE":"LARGE","REV_AT_EPOCH":"8306","FILE":"3630385","OBJECT_NAME":"STARLINK-2535","EPHEMERIS_TYPE":"0","MEAN_MOTION":"15.06409069","OBJECT_ID":"2021-036V"},{"GP_ID":"215999193","ECCENTRICITY":"0.00014670","TIME_SYSTEM":"UTC","CLASSIFICATION_TYPE":"U","TLE_LINE2":"2 48296  53.0533 214.6813 0001467  85.9364 274.1793 15.06408976 83121","OBJECT_TYPE":"PAYLOAD","APOAPSIS":"548.202","ARG_OF_PERICENTER":"85.9364","RA_OF_ASC_NODE":"214.6813","NORAD_CAT_ID":"48296","FILE":"3630641","RCS_SIZE":"LARGE","REV_AT_EPOCH":"8312","COUNTRY_CODE":"US","OBJECT_ID":"2021-036W","MEAN_MOTION":"15.06408976","EPHEMERIS_TYPE":"0","OBJECT_NAME":"STARLINK-2546","REF_FRAME":"TEME","MEAN_MOTION_DOT":"0.00005138","TLE_LINE1":"1 48296U 21036W   22297.15678438  .00005138  00000-0  36348-3 0  9999","MEAN_ANOMALY":"274.1793","DECAY_DATE":null,"ELEMENT_SET_NO":"999","PERIOD":"95.592","MEAN_MOTION_DDOT":"0.0000000000000","INCLINATION":"53.0533","EPOCH":"2022-10-24T03:45:46.170432","LAUNCH_DATE":"2021-04-29","PERIAPSIS":"546.170","SITE":"AFETR","SEMIMAJOR_AXIS":"6925.321","BSTAR":"0.00036348000000","MEAN_ELEMENT_THEORY":"SGP4","CENTER_NAME":"EARTH"},{"MEAN_ELEMENT_THEORY":"SGP4","CENTER_NAME":"EARTH","BSTAR":"0.00008275300000","LAUNCH_DATE":"2021-04-29","PERIAPSIS":"546.068","SEMIMAJOR_AXIS":"6925.333","SITE":"AFETR","INCLINATION":"53.0556","EPOCH":"2022-10-24T03:40:27.611040","MEAN_MOTION_DDOT":"0.0000000000000","ELEMENT_SET_NO":"999","PERIOD":"95.592","REF_FRAME":"TEME","TLE_LINE1":"1 48297U 21036X   22297.15309735  .00000951  00000-0  82753-4 0  9991","MEAN_MOTION_DOT":"0.00000951","DECAY_DATE":null,"MEAN_ANOMALY":"296.2599","OBJECT_NAME":"STARLINK-2544","OBJECT_ID":"2021-036X","MEAN_MOTION":"15.06405105","EPHEMERIS_TYPE":"0","COUNTRY_CODE":"US","FILE":"3630642","RCS_SIZE":"LARGE","REV_AT_EPOCH":"8312","RA_OF_ASC_NODE":"214.6904","ARG_OF_PERICENTER":"63.8558","NORAD_CAT_ID":"48297","TLE_LINE2":"2 48297  53.0556 214.6904 0001632  63.8558 296.2599 15.06405105 83122","CLASSIFICATION_TYPE":"U","OBJECT_TYPE":"PAYLOAD","APOAPSIS":"548.328","TIME_SYSTEM":"UTC","ECCENTRICITY":"0.00016320","GP_ID":"215999206"}];
